NORAD_CAT_ID,OBJECT_NAME,OBJECT_TYPE,EPOCH,MEAN_MOTION,ECCENTRICITY,INCLINATION,RA_OF_ASC_NODE,ARG_OF_PERICENTER,MEAN_ANOMALY,BSTAR,MEAN_MOTION_DOT,MEAN_MOTION_DDOT,TLE_LINE0,TLE_LINE1,TLE_LINE2,SEMIMAJOR_AXIS,PERIOD,APOGEE,PERIGEE,DECAYED
52605.0,STARLINK-4000,PAYLOAD,2024-04-25 04:53:54,15.08841052,0.0001986,53.2172,112.1845,105.4166,254.7045,6.7015e-05,7.79e-06,0.0,0 STARLINK-4000,1 52605U 22052H   24116.20409955  .00000779  00000-0  67015-4 0  9993,2 52605  53.2172 112.1845 0001986 105.4166 254.7045 15.08841052107974,6917.877,95.437,541.116,538.368,0.0
52605.0,STARLINK-4000,PAYLOAD,2024-04-25 06:29:17,15.08841514,0.0001964,53.2174,111.8875,103.511,256.6101,6.5599e-05,7.56e-06,0.0,0 STARLINK-4000,1 52605U 22052H   24116.27033942  .00000756  00000-0  65599-4 0  9999,2 52605  53.2174 111.8875 0001964 103.5110 256.6101 15.08841514107617,6917.876,95.437,541.099,538.382,0.0
52605.0,STARLINK-4000,PAYLOAD,2024-04-25 22:23:08,15.0884177,0.0001871,53.2174,108.9155,97.1472,262.9733,9.9801e-05,1.301e-05,0.0,0 STARLINK-4000,1 52605U 22052H   24116.93273891  .00001301  00000-0  99801-4 0  9991,2 52605  53.2174 108.9155 0001871  97.1472 262.9733 15.08841770107717,6917.875,95.437,541.034,538.446,0.0
52605.0,STARLINK-4000,PAYLOAD,2024-04-26 06:20:04,15.08839617,0.000181,53.2169,107.4288,86.957,273.1629,6.9906e-05,8.25e-06,0.0,0 STARLINK-4000,1 52605U 22052H   24117.26394111  .00000825  00000-0  69906-4 0  9990,2 52605  53.2169 107.4288 0001810  86.9570 273.1629 15.08839617108132,6917.882,95.438,540.999,538.494,0.0
52605.0,STARLINK-4000,PAYLOAD,2024-04-26 15:52:22,15.08845449,0.0001881,53.2176,105.6449,87.6953,272.4254,9.6827e-05,1.253e-05,0.0,0 STARLINK-4000,1 52605U 22052H   24117.66137594  .00001253  00000-0  96827-4 0  9992,2 52605  53.2176 105.6449 0001881  87.6953 272.4254 15.08845449107821,6917.864,95.437,541.03,538.427,0.0
52605.0,STARLINK-4000,PAYLOAD,2024-04-27 04:35:29,15.0882153,0.00019,53.2176,103.266,93.9365,266.1844,-0.00017076,-3.003e-05,0.0,0 STARLINK-4000,1 52605U 22052H   24118.19130986 -.00003003  00000-0 -17076-3 0  9994,2 52605  53.2176 103.2660 0001900  93.9365 266.1844 15.08821530108279,6917.937,95.439,541.116,538.487,0.0
52605.0,STARLINK-4000,PAYLOAD,2024-04-27 09:21:38,15.08822383,0.0001865,53.2174,102.3733,90.5096,269.6109,-0.00015851,-2.809e-05,0.0,0 STARLINK-4000,1 52605U 22052H   24118.39003047 -.00002809  00000-0 -15851-3 0  9995,2 52605  53.2174 102.3733 0001865  90.5096 269.6109 15.08822383107933,6917.934,95.439,541.089,538.509,0.0
52605.0,STARLINK-4000,PAYLOAD,2024-04-27 15:43:10,15.08826781,0.0001932,53.2183,101.1845,90.7684,269.353,-0.00011725,-2.153e-05,0.0,0 STARLINK-4000,1 52605U 22052H   24118.65498751 -.00002153  00000-0 -11725-3 0  9992,2 52605  53.2183 101.1845 0001932  90.7684 269.3530 15.08826781108341,6917.921,95.438,541.122,538.449,0.0
52605.0,STARLINK-4000,PAYLOAD,2024-04-28 07:37:02,15.08823055,0.0002057,53.2188,98.2121,93.3814,266.7413,-9.0501e-05,-1.728e-05,0.0,0 STARLINK-4000,1 52605U 22052H   24119.31739540 -.00001728  00000-0 -90501-4 0  9997,2 52605  53.2188  98.2121 0002057  93.3814 266.7413 15.08823055108074,6917.932,95.439,541.22,538.374,0.0
52605.0,STARLINK-4000,PAYLOAD,2024-04-29 04:17:02,15.0885416,0.0001712,53.2189,94.3457,85.4176,274.7012,-0.00017149,-3.017e-05,0.0,0 STARLINK-4000,1 52605U 22052H   24120.17849822 -.00003017  00000-0 -17149-3 0  9997,2 52605  53.2189  94.3457 0001712  85.4176 274.7012 15.08854160108574,6917.837,95.437,540.886,538.518,0.0
52605.0,STARLINK-4000,PAYLOAD,2024-04-29 07:27:48,15.08852667,0.0001946,53.2184,93.7504,89.1544,270.9671,-0.00013724,-2.473e-05,0.0,0 STARLINK-4000,1 52605U 22052H   24120.31097756 -.00002473  00000-0 -13724-3 0  9994,2 52605  53.2184  93.7504 0001946  89.1544 270.9671 15.08852667108225,6917.842,95.437,541.053,538.36,0.0
52605.0,STARLINK-4000,PAYLOAD,2024-04-29 15:24:44,15.08835127,0.000201,53.2187,92.2634,88.0705,272.0517,0.00027823,4.142e-05,0.0,0 STARLINK-4000,1 52605U 22052H   24120.64218104  .00004142  00000-0  27823-3 0  9990,2 52605  53.2187  92.2634 0002010  88.0705 272.0517 15.08835127108646,6917.895,95.438,541.151,538.37,0.0
52605.0,STARLINK-4000,PAYLOAD,2024-04-29 21:46:17,15.08833478,0.0002042,53.2173,91.0765,90.2633,269.8593,0.00026785,3.977e-05,0.0,0 STARLINK-4000,1 52605U 22052H   24120.90714485  .00003977  00000-0  26785-3 0  9993,2 52605  53.2173  91.0765 0002042  90.2633 269.8593 15.08833478108312,6917.9,95.438,541.178,538.353,0.0
52605.0,STARLINK-4000,PAYLOAD,2024-04-30 04:07:50,15.08832332,0.0001863,53.218,89.8836,96.9354,263.185,0.00019515,2.818e-05,0.0,0 STARLINK-4000,1 52605U 22052H   24121.17210946  .00002818  00000-0  19515-3 0  9992,2 52605  53.2180  89.8836 0001863  96.9354 263.1850 15.08832332108723,6917.904,95.438,541.058,538.48,0.0
52605.0,STARLINK-4000,PAYLOAD,2024-04-30 05:43:13,15.08833373,0.0001829,53.2179,89.5866,95.1005,265.0196,0.00020185,2.925e-05,0.0,0 STARLINK-4000,1 52605U 22052H   24121.23834891  .00002925  00000-0  20185-3 0  9994,2 52605  53.2179  89.5866 0001829  95.1005 265.0196 15.08833373108367,6917.901,95.438,541.031,538.5,0.0
52605.0,STARLINK-4000,PAYLOAD,2024-04-30 15:15:31,15.08839132,0.0001822,53.2179,87.8014,96.6315,263.4885,0.00022018,3.218e-05,0.0,0 STARLINK-4000,1 52605U 22052H   24121.63578576  .00003218  00000-0  22018-3 0  9996,2 52605  53.2179  87.8014 0001822  96.6315 263.4885 15.08839132108429,6917.883,95.438,541.008,538.488,0.0
52605.0,STARLINK-4000,PAYLOAD,2024-05-01 03:58:37,15.08840677,0.0001807,53.2182,85.4239,93.1221,266.9978,1.8905e-05,1.3e-07,0.0,0 STARLINK-4000,1 52605U 22052H   24122.16570940  .00000013  00000-0  18905-4 0  9993,2 52605  53.2182  85.4239 0001807  93.1221 266.9978 15.08840677108503,6917.878,95.438,540.993,538.493,0.0
52605.0,STARLINK-4000,PAYLOAD,2024-05-01 15:06:18,15.0884632,0.000184,53.2187,83.3421,93.7577,266.3626,2.7908e-05,1.56e-06,0.0,0 STARLINK-4000,1 52605U 22052H   24122.62938417  .00000156  00000-0  27908-4 0  9992,2 52605  53.2187  83.3421 0001840  93.7577 266.3626 15.08846320108948,6917.861,95.437,540.999,538.453,0.0
52605.0,STARLINK-4000,PAYLOAD,2024-05-02 03:49:24,15.08833147,0.0001752,53.2184,80.9635,91.2173,268.902,2.3766e-05,9e-07,0.0,0 STARLINK-4000,1 52605U 22052H   24123.15931277  .00000090  00000-0  23766-4 0  9993,2 52605  53.2184  80.9635 0001752  91.2173 268.9020 15.08833147109021,6917.901,95.438,540.978,538.554,0.0
52605.0,STARLINK-4000,PAYLOAD,2024-05-03 03:40:10,15.0884568,0.0001668,53.2176,76.5031,89.3462,270.7721,0.00013704,1.894e-05,0.0,0 STARLINK-4000,1 52605U 22052H   24124.15290165  .00001894  00000-0  13704-3 0  9991,2 52605  53.2176  76.5031 0001668  89.3462 270.7721 15.08845680109178,6917.863,95.437,540.882,538.574,0.0
52605.0,STARLINK-4000,PAYLOAD,2024-05-03 13:12:28,15.08859126,0.0001688,53.2182,74.7189,89.7496,270.3689,0.0002104,3.064e-05,0.0,0 STARLINK-4000,1 52605U 22052H   24124.55032959  .00003064  00000-0  21040-3 0  9993,2 52605  53.2182  74.7189 0001688  89.7496 270.3689 15.08859126108866,6917.822,95.436,540.855,538.519,0.0
52605.0,STARLINK-4000,PAYLOAD,2024-05-03 21:09:26,15.08832105,0.0002913,53.2186,73.233,86.7348,273.3978,0.00010988,1.46e-05,0.0,0 STARLINK-4000,1 52605U 22052H   24124.88155393  .00001460  00000-0  10988-3 0  9994,2 52605  53.2186  73.2330 0002913  86.7348 273.3978 15.08832105109286,6917.905,95.438,541.785,537.754,0.0
52605.0,STARLINK-4000,PAYLOAD,2024-05-04 03:30:59,15.08819509,0.0001696,53.2171,72.0443,99.0107,261.1077,-0.00015053,-2.682e-05,0.0,0 STARLINK-4000,1 52605U 22052H   24125.14652090 -.00002682  00000-0 -15053-3 0  9997,2 52605  53.2171  72.0443 0001696  99.0107 261.1077 15.08819509109322,6917.943,95.439,540.981,538.635,0.0
52605.0,STARLINK-4000,PAYLOAD,2024-05-04 13:03:18,15.08826139,0.0001727,53.2179,70.261,102.6683,257.4503,-0.00010562,-1.968e-05,0.0,0 STARLINK-4000,1 52605U 22052H   24125.54396002 -.00001968  00000-0 -10562-3 0  9995,2 52605  53.2179  70.2610 0001727 102.6683 257.4503 15.08826139109386,6917.923,95.438,540.982,538.593,0.0
52605.0,STARLINK-4000,PAYLOAD,2024-05-05 01:46:22,15.08840315,0.0001584,53.217,67.8803,101.5849,258.5321,6.2568e-05,7.08e-06,0.0,0 STARLINK-4000,1 52605U 22052H   24126.07387652  .00000708  00000-0  62568-4 0  9998,2 52605  53.2170  67.8803 0001584 101.5849 258.5321 15.08840315109467,6917.879,95.438,540.84,538.649,0.0
52605.0,STARLINK-4000,PAYLOAD,2024-05-06 04:47:55,15.08872397,0.0001525,53.2171,62.8241,108.4554,251.6604,0.0011186,0.00017575,0.0,0 STARLINK-4000,1 52605U 22052H   24127.19995181  .00017575  00000-0  11186-2 0  9992,2 52605  53.2171  62.8241 0001525 108.4554 251.6604 15.08872397109635,6917.781,95.436,540.701,538.591,0.0
52605.0,STARLINK-4000,PAYLOAD,2024-05-06 12:44:50,15.0888386,0.0001493,53.2175,61.3349,87.532,272.5843,0.0011693,0.00018393,0.0,0 STARLINK-4000,1 52605U 22052H   24127.53114428  .00018393  00000-0  11693-2 0  9999,2 52605  53.2175  61.3349 0001493  87.5320 272.5843 15.08883860109313,6917.746,95.435,540.644,538.579,0.0
52605.0,STARLINK-4000,PAYLOAD,2024-05-07 04:38:42,15.08862699,0.0001514,53.2178,58.3638,98.9451,261.1712,0.00067347,0.00010453,0.0,0 STARLINK-4000,1 52605U 22052H   24128.19354291  .00010453  00000-0  67347-3 0  9993,2 52605  53.2178  58.3638 0001514  98.9451 261.1712 15.08862699109785,6917.811,95.436,540.723,538.629,0.0
52605.0,STARLINK-4000,PAYLOAD,2024-05-08 01:18:42,15.08846544,0.0002118,53.218,54.4972,143.6514,216.4623,0.00049019,7.523e-05,0.0,0 STARLINK-4000,1 52605U 22052H   24129.05466413  .00007523  00000-0  49019-3 0  9999,2 52605  53.2180  54.4972 0002118 143.6514 216.4623 15.08846544109915,6917.86,95.437,541.191,538.26,0.0
52605.0,STARLINK-4000,PAYLOAD,2024-05-08 21:58:44,15.08836513,0.0001728,53.2189,50.631,105.4577,254.6606,0.0004623,7.076e-05,0.0,0 STARLINK-4000,1 52605U 22052H   24129.91579362  .00007076  00000-0  46230-3 0  9997,2 52605  53.2189  50.6310 0001728 105.4577 254.6606 15.08836513109672,6917.891,95.438,540.951,538.561,0.0
